ORBCOMM FM24            
1 25478U 98053D   24282.51493539  .00012513  00000+0  42549-2 0  9995
2 25478  45.0095  21.2084 0000736 262.8292  97.2472 14.36620470361515
ORBCOMM FM25            
1 25479U 98053E   24282.55260603  .00013066  00000+0  44414-2 0  9991
2 25479  45.0084  19.2832 0001765  69.2488 290.8549 14.36609303361531
ORBCOMM FM26            
1 25480U 98053F   24282.55447709  .00010738  00000+0  37123-2 0  9999
2 25480  45.0080  14.1020 0004045  96.8264 263.3044 14.35897489361464
ORBCOMM FM27            
1 25481U 98053G   24282.54190989  .00012484  00000+0  42470-2 0  9995
2 25481  45.0067  19.5900 0002195 236.5227 123.5411 14.36598184361468
ORBCOMM FM28            
1 25482U 98053H   24282.48588623  .00010585  00000+0  35841-2 0  9999
2 25482  45.0058 317.8562 0002006 143.8766 216.2218 14.36944019362138
ORBCOMM FM30            
1 25980U 99065A   24282.50197392  .00011253  00000+0  38758-2 0  9991
2 25980  45.0300 200.0265 0005135 191.0007 169.0729 14.36046442298787
ORBCOMM FM31            
1 25981U 99065B   24282.46863729  .00010822  00000+0  37321-2 0  9997
2 25981  45.0212 193.7802 0002796 225.5631 134.4989 14.36016888298775
ORBCOMM FM32            
1 25982U 99065C   24282.48500552  .00010186  00000+0  35853-2 0  9993
2 25982  45.0143 208.5683 0004904 223.5499 136.4961 14.35037679298552
