<?xml version="1.0" encoding="UTF-8"?>
<ndm xmlns:xsi="http://www.w3.org/2001/XMLSchema-instance" xsi:noNamespaceSchemaLocation="https://sanaregistry.org/r/ndmxml_unqualified/ndmxml-2.0.0-master-2.0.xsd">
<omm id="CCSDS_OMM_VERS" version="2.0">
<header><CREATION_DATE/><ORIGINATOR/></header><body><segment><metadata><OBJECT_NAME>ORBCOMM FM24</OBJECT_NAME><OBJECT_ID>1998-053D</OBJECT_ID><CENTER_NAME>EARTH</CENTER_NAME><REF_FRAME>TEME</REF_FRAME><TIME_SYSTEM>UTC</TIME_SYSTEM><MEAN_ELEMENT_THEORY>SGP4</MEAN_ELEMENT_THEORY></metadata><data><meanElements><EPOCH>2024-10-08T12:21:30.417696</EPOCH><MEAN_MOTION>14.36620470</MEAN_MOTION><ECCENTRICITY>.0000736</ECCENTRICITY><INCLINATION>45.0095</INCLINATION><RA_OF_ASC_NODE>21.2084</RA_OF_ASC_NODE><ARG_OF_PERICENTER>262.8292</ARG_OF_PERICENTER><MEAN_ANOMALY>97.2472</MEAN_ANOMALY></meanElements><tleParameters><EPHEMERIS_TYPE>0</EPHEMERIS_TYPE><CLASSIFICATION_TYPE>U</CLASSIFICATION_TYPE><NORAD_CAT_ID>25478</NORAD_CAT_ID><ELEMENT_SET_NO>999</ELEMENT_SET_NO><REV_AT_EPOCH>36151</REV_AT_EPOCH><BSTAR>.42549E-2</BSTAR><MEAN_MOTION_DOT>.12513E-3</MEAN_MOTION_DOT><MEAN_MOTION_DDOT>0</MEAN_MOTION_DDOT></tleParameters></data></segment></body></omm>
<omm id="CCSDS_OMM_VERS" version="2.0">
<header><CREATION_DATE/><ORIGINATOR/></header><body><segment><metadata><OBJECT_NAME>ORBCOMM FM25</OBJECT_NAME><OBJECT_ID>1998-053E</OBJECT_ID><CENTER_NAME>EARTH</CENTER_NAME><REF_FRAME>TEME</REF_FRAME><TIME_SYSTEM>UTC</TIME_SYSTEM><MEAN_ELEMENT_THEORY>SGP4</MEAN_ELEMENT_THEORY></metadata><data><meanElements><EPOCH>2024-10-08T13:15:45.160992</EPOCH><MEAN_MOTION>14.36609303</MEAN_MOTION><ECCENTRICITY>.0001765</ECCENTRICITY><INCLINATION>45.0084</INCLINATION><RA_OF_ASC_NODE>19.2832</RA_OF_ASC_NODE><ARG_OF_PERICENTER>69.2488</ARG_OF_PERICENTER><MEAN_ANOMALY>290.8549</MEAN_ANOMALY></meanElements><tleParameters><EPHEMERIS_TYPE>0</EPHEMERIS_TYPE><CLASSIFICATION_TYPE>U</CLASSIFICATION_TYPE><NORAD_CAT_ID>25479</NORAD_CAT_ID><ELEMENT_SET_NO>999</ELEMENT_SET_NO><REV_AT_EPOCH>36153</REV_AT_EPOCH><BSTAR>.44414E-2</BSTAR><MEAN_MOTION_DOT>.13066E-3</MEAN_MOTION_DOT><MEAN_MOTION_DDOT>0</MEAN_MOTION_DDOT></tleParameters></data></segment></body></omm>
<omm id="CCSDS_OMM_VERS" version="2.0">
<header><CREATION_DATE/><ORIGINATOR/></header><body><segment><metadata><OBJECT_NAME>ORBCOMM FM26</OBJECT_NAME><OBJECT_ID>1998-053F</OBJECT_ID><CENTER_NAME>EARTH</CENTER_NAME><REF_FRAME>TEME</REF_FRAME><TIME_SYSTEM>UTC</TIME_SYSTEM><MEAN_ELEMENT_THEORY>SGP4</MEAN_ELEMENT_THEORY></metadata><data><meanElements><EPOCH>2024-10-08T13:18:26.820576</EPOCH><MEAN_MOTION>14.35897489</MEAN_MOTION><ECCENTRICITY>.0004045</ECCENTRICITY><INCLINATION>45.0080</INCLINATION><RA_OF_ASC_NODE>14.1020</RA_OF_ASC_NODE><ARG_OF_PERICENTER>96.8264</ARG_OF_PERICENTER><MEAN_ANOMALY>263.3044</MEAN_ANOMALY></meanElements><tleParameters><EPHEMERIS_TYPE>0</EPHEMERIS_TYPE><CLASSIFICATION_TYPE>U</CLASSIFICATION_TYPE><NORAD_CAT_ID>25480</NORAD_CAT_ID><ELEMENT_SET_NO>999</ELEMENT_SET_NO><REV_AT_EPOCH>36146</REV_AT_EPOCH><BSTAR>.37123E-2</BSTAR><MEAN_MOTION_DOT>.10738E-3</MEAN_MOTION_DOT><MEAN_MOTION_DDOT>0</MEAN_MOTION_DDOT></tleParameters></data></segment></body></omm>
<omm id="CCSDS_OMM_VERS" version="2.0">
<header><CREATION_DATE/><ORIGINATOR/></header><body><segment><metadata><OBJECT_NAME>ORBCOMM FM27</OBJECT_NAME><OBJECT_ID>1998-053G</OBJECT_ID><CENTER_NAME>EARTH</CENTER_NAME><REF_FRAME>TEME</REF_FRAME><TIME_SYSTEM>UTC</TIME_SYSTEM><MEAN_ELEMENT_THEORY>SGP4</MEAN_ELEMENT_THEORY></metadata><data><meanElements><EPOCH>2024-10-08T13:00:21.014496</EPOCH><MEAN_MOTION>14.36598184</MEAN_MOTION><ECCENTRICITY>.0002195</ECCENTRICITY><INCLINATION>45.0067</INCLINATION><RA_OF_ASC_NODE>19.5900</RA_OF_ASC_NODE><ARG_OF_PERICENTER>236.5227</ARG_OF_PERICENTER><MEAN_ANOMALY>123.5411</MEAN_ANOMALY></meanElements><tleParameters><EPHEMERIS_TYPE>0</EPHEMERIS_TYPE><CLASSIFICATION_TYPE>U</CLASSIFICATION_TYPE><NORAD_CAT_ID>25481</NORAD_CAT_ID><ELEMENT_SET_NO>999</ELEMENT_SET_NO><REV_AT_EPOCH>36146</REV_AT_EPOCH><BSTAR>.4247E-2</BSTAR><MEAN_MOTION_DOT>.12484E-3</MEAN_MOTION_DOT><MEAN_MOTION_DDOT>0</MEAN_MOTION_DDOT></tleParameters></data></segment></body></omm>
<omm id="CCSDS_OMM_VERS" version="2.0">
<header><CREATION_DATE/><ORIGINATOR/></header><body><segment><metadata><OBJECT_NAME>ORBCOMM FM28</OBJECT_NAME><OBJECT_ID>1998-053H</OBJECT_ID><CENTER_NAME>EARTH</CENTER_NAME><REF_FRAME>TEME</REF_FRAME><TIME_SYSTEM>UTC</TIME_SYSTEM><MEAN_ELEMENT_THEORY>SGP4</MEAN_ELEMENT_THEORY></metadata><data><meanElements><EPOCH>2024-10-08T11:39:40.570272</EPOCH><MEAN_MOTION>14.36944019</MEAN_MOTION><ECCENTRICITY>.0002006</ECCENTRICITY><INCLINATION>45.0058</INCLINATION><RA_OF_ASC_NODE>317.8562</RA_OF_ASC_NODE><ARG_OF_PERICENTER>143.8766</ARG_OF_PERICENTER><MEAN_ANOMALY>216.2218</MEAN_ANOMALY></meanElements><tleParameters><EPHEMERIS_TYPE>0</EPHEMERIS_TYPE><CLASSIFICATION_TYPE>U</CLASSIFICATION_TYPE><NORAD_CAT_ID>25482</NORAD_CAT_ID><ELEMENT_SET_NO>999</ELEMENT_SET_NO><REV_AT_EPOCH>36213</REV_AT_EPOCH><BSTAR>.35841E-2</BSTAR><MEAN_MOTION_DOT>.10585E-3</MEAN_MOTION_DOT><MEAN_MOTION_DDOT>0</MEAN_MOTION_DDOT></tleParameters></data></segment></body></omm>
<omm id="CCSDS_OMM_VERS" version="2.0">
<header><CREATION_DATE/><ORIGINATOR/></header><body><segment><metadata><OBJECT_NAME>ORBCOMM FM30</OBJECT_NAME><OBJECT_ID>1999-065A</OBJECT_ID><CENTER_NAME>EARTH</CENTER_NAME><REF_FRAME>TEME</REF_FRAME><TIME_SYSTEM>UTC</TIME_SYSTEM><MEAN_ELEMENT_THEORY>SGP4</MEAN_ELEMENT_THEORY></metadata><data><meanElements><EPOCH>2024-10-08T12:02:50.546688</EPOCH><MEAN_MOTION>14.36046442</MEAN_MOTION><ECCENTRICITY>.0005135</ECCENTRICITY><INCLINATION>45.0300</INCLINATION><RA_OF_ASC_NODE>200.0265</RA_OF_ASC_NODE><ARG_OF_PERICENTER>191.0007</ARG_OF_PERICENTER><MEAN_ANOMALY>169.0729</MEAN_ANOMALY></meanElements><tleParameters><EPHEMERIS_TYPE>0</EPHEMERIS_TYPE><CLASSIFICATION_TYPE>U</CLASSIFICATION_TYPE><NORAD_CAT_ID>25980</NORAD_CAT_ID><ELEMENT_SET_NO>999</ELEMENT_SET_NO><REV_AT_EPOCH>29878</REV_AT_EPOCH><BSTAR>.38758E-2</BSTAR><MEAN_MOTION_DOT>.11253E-3</MEAN_MOTION_DOT><MEAN_MOTION_DDOT>0</MEAN_MOTION_DDOT></tleParameters></data></segment></body></omm>
<omm id="CCSDS_OMM_VERS" version="2.0">
<header><CREATION_DATE/><ORIGINATOR/></header><body><segment><metadata><OBJECT_NAME>ORBCOMM FM31</OBJECT_NAME><OBJECT_ID>1999-065B</OBJECT_ID><CENTER_NAME>EARTH</CENTER_NAME><REF_FRAME>TEME</REF_FRAME><TIME_SYSTEM>UTC</TIME_SYSTEM><MEAN_ELEMENT_THEORY>SGP4</MEAN_ELEMENT_THEORY></metadata><data><meanElements><EPOCH>2024-10-08T11:14:50.261856</EPOCH><MEAN_MOTION>14.36016888</MEAN_MOTION><ECCENTRICITY>.0002796</ECCENTRICITY><INCLINATION>45.0212</INCLINATION><RA_OF_ASC_NODE>193.7802</RA_OF_ASC_NODE><ARG_OF_PERICENTER>225.5631</ARG_OF_PERICENTER><MEAN_ANOMALY>134.4989</MEAN_ANOMALY></meanElements><tleParameters><EPHEMERIS_TYPE>0</EPHEMERIS_TYPE><CLASSIFICATION_TYPE>U</CLASSIFICATION_TYPE><NORAD_CAT_ID>25981</NORAD_CAT_ID><ELEMENT_SET_NO>999</ELEMENT_SET_NO><REV_AT_EPOCH>29877</REV_AT_EPOCH><BSTAR>.37321E-2</BSTAR><MEAN_MOTION_DOT>.10822E-3</MEAN_MOTION_DOT><MEAN_MOTION_DDOT>0</MEAN_MOTION_DDOT></tleParameters></data></segment></body></omm>
<omm id="CCSDS_OMM_VERS" version="2.0">
<header><CREATION_DATE/><ORIGINATOR/></header><body><segment><metadata><OBJECT_NAME>ORBCOMM FM32</OBJECT_NAME><OBJECT_ID>1999-065C</OBJECT_ID><CENTER_NAME>EARTH</CENTER_NAME><REF_FRAME>TEME</REF_FRAME><TIME_SYSTEM>UTC</TIME_SYSTEM><MEAN_ELEMENT_THEORY>SGP4</MEAN_ELEMENT_THEORY></metadata><data><meanElements><EPOCH>2024-10-08T11:38:24.476928</EPOCH><MEAN_MOTION>14.35037679</MEAN_MOTION><ECCENTRICITY>.0004904</ECCENTRICITY><INCLINATION>45.0143</INCLINATION><RA_OF_ASC_NODE>208.5683</RA_OF_ASC_NODE><ARG_OF_PERICENTER>223.5499</ARG_OF_PERICENTER><MEAN_ANOMALY>136.4961</MEAN_ANOMALY></meanElements><tleParameters><EPHEMERIS_TYPE>0</EPHEMERIS_TYPE><CLASSIFICATION_TYPE>U</CLASSIFICATION_TYPE><NORAD_CAT_ID>25982</NORAD_CAT_ID><ELEMENT_SET_NO>999</ELEMENT_SET_NO><REV_AT_EPOCH>29855</REV_AT_EPOCH><BSTAR>.35853E-2</BSTAR><MEAN_MOTION_DOT>.10186E-3</MEAN_MOTION_DOT><MEAN_MOTION_DDOT>0</MEAN_MOTION_DDOT></tleParameters></data></segment></body></omm>

</ndm>
